ORBCOMM FM115           
1 41186U 15081H   25097.47621946  .00001931  00000+0  41287-3 0  9995
2 41186  46.9995  15.8217 0000292  25.0788 335.0113 14.62326758497427
ORBCOMM FM108           
1 41187U 15081J   25097.24879911  .00001461  00000+0  35178-3 0  9998
2 41187  47.0043  81.9422 0003228 332.7510  27.3205 14.57966632496527
ORBCOMM FM117           
1 41188U 15081K   25097.21514375  .00001522  00000+0  36499-3 0  9991
2 41188  47.0006  80.8879 0003586 340.6341  19.4408 14.57972963496484
ORBCOMM FM116           
1 41189U 15081L   25097.54909344  .00001912  00000+0  44862-3 0  9998
2 41189  47.0004 169.1822 0000352  53.7728 306.3189 14.58002789495340
